IRIDIUM 33 DEB          
1 34520U 97051HM  17345.73676466  .00006171  00000-0  87565-3 0  9990
2 34520  86.3684 180.5869 0015518 171.5819 188.5664 14.76753538464270
